[{"OBJECT_NAME":"STARLINK-3919","OBJECT_ID":"2022-051AW","EPOCH":"2026-03-09T11:05:32.756352","MEAN_MOTION":15.0884405,"ECCENTRICITY":0.00013977,"INCLINATION":53.2161,"RA_OF_ASC_NODE":135.1523,"ARG_OF_PERICENTER":93.5124,"MEAN_ANOMALY":266.6028,"EPHEMERIS_TYPE":0,"CLASSIFICATION_TYPE":"U","NORAD_CAT_ID":52580,"ELEMENT_SET_NO":999,"REV_AT_EPOCH":21134,"BSTAR":4.3521448e-5,"MEAN_MOTION_DOT":4.05e-6,"MEAN_MOTION_DDOT":0},{"OBJECT_NAME":"COSMOS 2251 DEB","OBJECT_ID":"1993-036EU","EPOCH":"2026-03-09T14:44:02.306976","MEAN_MOTION":15.10275873,"ECCENTRICITY":0.0002082,"INCLINATION":74.0027,"RA_OF_ASC_NODE":262.4484,"ARG_OF_PERICENTER":258.1067,"MEAN_ANOMALY":101.9891,"EPHEMERIS_TYPE":0,"CLASSIFICATION_TYPE":"U","NORAD_CAT_ID":33939,"ELEMENT_SET_NO":999,"REV_AT_EPOCH":90059,"BSTAR":0.0040153,"MEAN_MOTION_DOT":0.00066338,"MEAN_MOTION_DDOT":0}]
